NORAD_CAT_ID,OBJECT_NAME,OBJECT_TYPE,EPOCH,MEAN_MOTION,ECCENTRICITY,INCLINATION,RA_OF_ASC_NODE,ARG_OF_PERICENTER,MEAN_ANOMALY,BSTAR,MEAN_MOTION_DOT,MEAN_MOTION_DDOT,TLE_LINE0,TLE_LINE1,TLE_LINE2,SEMIMAJOR_AXIS,PERIOD,APOGEE,PERIGEE,DECAYED
55629.0,STARLINK-5497,PAYLOAD,2023-12-02 20:29:31,14.98332449,0.0002562,69.9989,131.8393,270.1746,89.9119,0.00011925,1.33e-05,0.0,0 STARLINK-5497,1 55629U 23021B   23336.85383533  .00001330  00000-0  11925-3 0  9998,2 55629  69.9989 131.8393 0002562 270.1746  89.9119 14.98332449 44292,6950.185,96.107,573.831,570.27,0.0
55629.0,STARLINK-5497,PAYLOAD,2023-12-03 12:30:52,14.98331147,0.0002647,69.9987,130.1558,273.0537,87.0319,0.0002582,2.989e-05,0.0,0 STARLINK-5497,1 55629U 23021B   23337.52143746  .00002989  00000-0  25820-3 0  9993,2 55629  69.9987 130.1558 0002647 273.0537  87.0319 14.98331147 44092,6950.189,96.107,573.894,570.215,0.0
55629.0,STARLINK-5497,PAYLOAD,2023-12-03 14:07:00,14.98331329,0.000265,69.9987,129.9875,272.9361,87.1495,0.00026541,3.075e-05,0.0,0 STARLINK-5497,1 55629U 23021B   23337.58819776  .00003075  00000-0  26541-3 0  9990,2 55629  69.9987 129.9875 0002650 272.9361  87.1495 14.98331329 44400,6950.189,96.107,573.896,570.212,0.0
55629.0,STARLINK-5497,PAYLOAD,2023-12-04 12:32:52,14.98342058,0.0002723,69.9999,127.6314,276.0129,84.0719,0.00016186,1.839e-05,0.0,0 STARLINK-5497,1 55629U 23021B   23338.52283295  .00001839  00000-0  16186-3 0  9996,2 55629  69.9999 127.6314 0002723 276.0129  84.0719 14.98342058 44545,6950.156,96.106,573.913,570.128,0.0
55629.0,STARLINK-5497,PAYLOAD,2023-12-05 12:34:53,14.98338977,0.0002762,69.9985,125.1062,272.4312,87.6531,0.00011609,1.293e-05,0.0,0 STARLINK-5497,1 55629U 23021B   23339.52422911  .00001293  00000-0  11609-3 0  9996,2 55629  69.9985 125.1062 0002762 272.4312  87.6531 14.98338977 44692,6950.165,96.106,573.95,570.11,0.0
55629.0,STARLINK-5497,PAYLOAD,2023-12-06 11:00:46,14.98336366,0.0002548,69.9985,122.7492,264.5981,95.4887,2.7758e-05,2.38e-06,0.0,0 STARLINK-5497,1 55629U 23021B   23340.45886705  .00000238  00000-0  27758-4 0  9996,2 55629  69.9985 122.7492 0002548 264.5981  95.4887 14.98336366 44835,6950.173,96.107,573.809,570.267,0.0
55629.0,STARLINK-5497,PAYLOAD,2023-12-07 11:02:46,14.9833196,0.0002607,69.999,120.2245,263.4309,96.6554,5.431e-05,5.55e-06,0.0,0 STARLINK-5497,1 55629U 23021B   23341.46026550  .00000555  00000-0  54310-4 0  9998,2 55629  69.9990 120.2245 0002607 263.4309  96.6554 14.98331960 44680,6950.187,96.107,573.864,570.24,0.0
55629.0,STARLINK-5497,PAYLOAD,2023-12-07 12:38:55,14.98331475,0.0002506,69.9988,120.0555,258.2252,101.8626,4.181e-05,4.06e-06,0.0,0 STARLINK-5497,1 55629U 23021B   23341.52702561  .00000406  00000-0  41810-4 0  9994,2 55629  69.9988 120.0555 0002506 258.2252 101.8626 14.98331475 44990,6950.188,96.107,573.795,570.312,0.0
55629.0,STARLINK-5497,PAYLOAD,2023-12-08 11:04:47,14.98329664,0.0002757,69.9985,117.699,268.6845,91.3998,6.5653e-05,6.9e-06,0.0,0 STARLINK-5497,1 55629U 23021B   23342.46166554  .00000690  00000-0  65653-4 0  9990,2 55629  69.9985 117.6990 0002757 268.6845  91.3998 14.98329664 44838,6950.194,96.107,573.975,570.143,0.0
55629.0,STARLINK-5497,PAYLOAD,2023-12-08 12:40:55,14.98329802,0.0002759,69.9986,117.5307,268.6466,91.4377,6.4721e-05,6.79e-06,0.0,0 STARLINK-5497,1 55629U 23021B   23342.52842547  .00000679  00000-0  64721-4 0  9992,2 55629  69.9986 117.5307 0002759 268.6466  91.4377 14.98329802 45142,6950.194,96.107,573.976,570.141,0.0
55629.0,STARLINK-5497,PAYLOAD,2023-12-09 11:06:48,14.98332428,0.0002765,69.9986,115.1742,268.8829,91.2014,6.5185e-05,6.85e-06,0.0,0 STARLINK-5497,1 55629U 23021B   23343.46306320  .00000685  00000-0  65185-4 0  9992,2 55629  69.9986 115.1742 0002765 268.8829  91.2014 14.98332428 44986,6950.185,96.107,573.972,570.129,0.0
55629.0,STARLINK-5497,PAYLOAD,2023-12-09 12:42:56,14.98332069,0.0002772,69.9986,115.0059,268.7509,91.3332,5.8038e-05,6e-06,0.0,0 STARLINK-5497,1 55629U 23021B   23343.52982336  .00000600  00000-0  58038-4 0  9992,2 55629  69.9986 115.0059 0002772 268.7509  91.3332 14.98332069 45298,6950.186,96.107,573.978,570.125,0.0
55629.0,STARLINK-5497,PAYLOAD,2023-12-10 14:21:05,14.98331764,0.0002802,69.9991,112.3135,267.645,92.4388,5.0164e-05,5.06e-06,0.0,0 STARLINK-5497,1 55629U 23021B   23344.59798303  .00000506  00000-0  50164-4 0  9996,2 55629  69.9991 112.3135 0002802 267.6450  92.4388 14.98331764 45458,6950.187,96.107,574.0,570.105,0.0
55629.0,STARLINK-5497,PAYLOAD,2023-12-10 19:09:29,14.98332695,0.0003028,69.9992,111.8089,272.4811,87.6001,5.8451e-05,6.05e-06,0.0,0 STARLINK-5497,1 55629U 23021B   23344.79826234  .00000605  00000-0  58451-4 0  9990,2 55629  69.9992 111.8089 0003028 272.4811  87.6001 14.98332695 45189,6950.185,96.107,574.154,569.945,0.0
55629.0,STARLINK-5497,PAYLOAD,2023-12-11 14:23:06,14.98332078,0.0002728,69.9996,109.7892,266.6269,93.4578,6.6097e-05,6.96e-06,0.0,0 STARLINK-5497,1 55629U 23021B   23345.59938164  .00000696  00000-0  66097-4 0  9990,2 55629  69.9996 109.7892 0002728 266.6269  93.4578 14.98332078 45605,6950.186,96.107,573.947,570.155,0.0
55629.0,STARLINK-5497,PAYLOAD,2023-12-11 17:35:22,14.98331782,0.0002904,69.9997,109.4528,271.4661,88.6165,6.4103e-05,6.72e-06,0.0,0 STARLINK-5497,1 55629U 23021B   23345.73290184  .00000672  00000-0  64103-4 0  9999,2 55629  69.9997 109.4528 0002904 271.4661  88.6165 14.98331782 45626,6950.187,96.107,574.071,570.034,0.0
55629.0,STARLINK-5497,PAYLOAD,2023-12-12 11:12:51,14.98330378,0.0002822,69.9998,107.602,266.6762,93.4074,6.8806e-05,7.28e-06,0.0,0 STARLINK-5497,1 55629U 23021B   23346.46726191  .00000728  00000-0  68806-4 0  9998,2 55629  69.9998 107.6020 0002822 266.6762  93.4074 14.98330378 45433,6950.192,96.107,574.018,570.095,0.0
55629.0,STARLINK-5497,PAYLOAD,2023-12-12 12:48:59,14.98330639,0.0002783,69.9998,107.4336,264.6179,95.4663,6.4605e-05,6.78e-06,0.0,0 STARLINK-5497,1 55629U 23021B   23346.53402169  .00000678  00000-0  64605-4 0  9999,2 55629  69.9998 107.4336 0002783 264.6179  95.4663 14.98330639 45747,6950.191,96.107,573.99,570.122,0.0
55629.0,STARLINK-5497,PAYLOAD,2023-12-12 17:37:23,14.98331066,0.0002794,69.9999,106.9287,264.7959,95.2882,6.8848e-05,7.29e-06,0.0,0 STARLINK-5497,1 55629U 23021B   23346.73430124  .00000729  00000-0  68848-4 0  9993,2 55629  69.9999 106.9287 0002794 264.7959  95.2882 14.98331066 45775,6950.19,96.107,573.996,570.113,0.0
55629.0,STARLINK-5497,PAYLOAD,2023-12-13 11:14:52,14.98333141,0.0002898,70.0,105.077,266.1326,93.9501,7.3308e-05,7.82e-06,0.0,0 STARLINK-5497,1 55629U 23021B   23347.46865826  .00000782  00000-0  73308-4 0  9991,2 55629  70.0000 105.0770 0002898 266.1326  93.9501 14.98333141 45585,6950.183,96.107,574.062,570.034,0.0
55629.0,STARLINK-5497,PAYLOAD,2023-12-13 14:27:08,14.98335022,0.0002628,70.0004,104.741,256.5215,103.5652,6.7041e-05,7.07e-06,0.0,0 STARLINK-5497,1 55629U 23021B   23347.60217687  .00000707  00000-0  67041-4 0  9997,2 55629  70.0004 104.7410 0002628 256.5215 103.5652 14.98335022 45908,6950.177,96.107,573.869,570.216,0.0
55629.0,STARLINK-5497,PAYLOAD,2023-12-13 17:39:24,14.98335284,0.0002758,70.0003,104.4041,261.827,98.2576,7.7369e-05,8.3e-06,0.0,0 STARLINK-5497,1 55629U 23021B   23347.73569619  .00000830  00000-0  77369-4 0  9997,2 55629  70.0003 104.4041 0002758 261.8270  98.2576 14.98335284 45925,6950.177,96.107,573.958,570.125,0.0
55629.0,STARLINK-5497,PAYLOAD,2023-12-14 09:40:45,14.98326438,0.0002638,70.0009,102.7219,251.9916,108.0956,1.6341e-06,-7.3e-07,0.0,0 STARLINK-5497,1 55629U 23021B   23348.40330339 -.00000073  00000-0  16341-5 0  9991,2 55629  70.0009 102.7219 0002638 251.9916 108.0956 14.98326438 45724,6950.204,96.107,573.902,570.235,0.0
55629.0,STARLINK-5497,PAYLOAD,2023-12-14 14:29:09,14.98325467,0.0002651,70.0009,102.217,252.2996,107.7874,-1.2069e-05,-2.37e-06,0.0,0 STARLINK-5497,1 55629U 23021B   23348.60358478 -.00000237  00000-0 -12069-4 0  9992,2 55629  70.0009 102.2170 0002651 252.2996 107.7874 14.98325467 46055,6950.207,96.107,573.914,570.229,0.0
55629.0,STARLINK-5497,PAYLOAD,2023-12-14 17:41:25,14.9832507,0.0002676,70.0007,101.8798,256.7218,103.3643,-1.937e-05,-3.24e-06,0.0,0 STARLINK-5497,1 55629U 23021B   23348.73710565 -.00000324  00000-0 -19370-4 0  9994,2 55629  70.0007 101.8798 0002676 256.7218 103.3643 14.98325070 46075,6950.208,96.107,573.933,570.213,0.0
55629.0,STARLINK-5497,PAYLOAD,2023-12-15 11:18:54,14.98331372,0.0002798,70.0004,100.0278,260.7969,99.2873,-2.0135e-06,-1.17e-06,0.0,0 STARLINK-5497,1 55629U 23021B   23349.47146118 -.00000117  00000-0 -20135-5 0  9995,2 55629  70.0004 100.0278 0002798 260.7969  99.2873 14.98331372 45887,6950.189,96.107,573.998,570.109,0.0
55629.0,STARLINK-5497,PAYLOAD,2023-12-15 14:31:10,14.98332322,0.0002908,70.0003,99.6915,260.6893,99.3937,-5.9022e-06,-1.63e-06,0.0,0 STARLINK-5497,1 55629U 23021B   23349.60498075 -.00000163  00000-0 -59022-5 0  9990,2 55629  70.0003  99.6915 0002908 260.6893  99.3937 14.98332322 46200,6950.186,96.107,574.072,570.03,0.0
55629.0,STARLINK-5497,PAYLOAD,2023-12-15 17:43:26,14.98331826,0.0002797,70.0005,99.3548,261.3717,98.7125,5.9917e-06,-2.1e-07,0.0,0 STARLINK-5497,1 55629U 23021B   23349.73850085 -.00000021  00000-0  59917-5 0  9992,2 55629  70.0005  99.3548 0002797 261.3717  98.7125 14.98331826 46222,6950.187,96.107,573.996,570.108,0.0
55629.0,STARLINK-5497,PAYLOAD,2023-12-16 11:20:55,14.98330358,0.0002962,70.0002,97.503,264.7145,95.3676,0.00010403,1.148e-05,0.0,0 STARLINK-5497,1 55629U 23021B   23350.47285994  .00001148  00000-0  10403-3 0  9991,2 55629  70.0002  97.5030 0002962 264.7145  95.3676 14.98330358 46033,6950.192,96.107,574.115,569.998,0.0
55629.0,STARLINK-5497,PAYLOAD,2023-12-16 14:33:11,14.98332496,0.0002921,70.0002,97.1665,263.5681,96.5145,0.00012897,1.446e-05,0.0,0 STARLINK-5497,1 55629U 23021B   23350.60637821  .00001446  00000-0  12897-3 0  9996,2 55629  70.0002  97.1665 0002921 263.5681  96.5145 14.98332496 46354,6950.185,96.107,574.08,570.02,0.0
